[{"OBJECT_NAME":"STARLINK-5122","OBJECT_ID":"2022-141Y","EPOCH":"2026-03-09T04:33:20.451456","MEAN_MOTION":15.08832639,"ECCENTRICITY":0.00014858,"INCLINATION":53.2185,"RA_OF_ASC_NODE":6.2525,"ARG_OF_PERICENTER":100.9333,"MEAN_ANOMALY":259.1826,"EPHEMERIS_TYPE":0,"CLASSIFICATION_TYPE":"U","NORAD_CAT_ID":54179,"ELEMENT_SET_NO":999,"REV_AT_EPOCH":18578,"BSTAR":-0.00011632371,"MEAN_MOTION_DOT":-2.138e-5,"MEAN_MOTION_DDOT":0},{"OBJECT_NAME":"SL-8 DEB","OBJECT_ID":"1976-098E","EPOCH":"2026-03-09T08:07:12.416160","MEAN_MOTION":15.06605169,"ECCENTRICITY":0.00102283,"INCLINATION":74.028,"RA_OF_ASC_NODE":26.283,"ARG_OF_PERICENTER":218.296,"MEAN_ANOMALY":294.2383,"EPHEMERIS_TYPE":0,"CLASSIFICATION_TYPE":"U","NORAD_CAT_ID":18504,"ELEMENT_SET_NO":999,"REV_AT_EPOCH":18055,"BSTAR":0.0011587434,"MEAN_MOTION_DOT":0.00017191,"MEAN_MOTION_DDOT":0}]
